KUIPER-00176            
1 65788U 25217AC  25309.92218955  .00060833  00000+0  16087-2 0  9994
2 65788  51.8718 242.2431 0002747 128.4584 231.6650 15.37823129  6387
KUIPER-00101            
1 65947U 25228A   25309.93625701  .00015964  00000+0  47416-3 0  9991
2 65947  51.8790 197.8803 0005638 216.0739 143.9867 15.34922423  4769
KUIPER-00113            
1 65948U 25228B   25309.93244240  .00016609  00000+0  48880-3 0  9990
2 65948  51.8792 197.8586 0006127 211.7885 148.2732 15.35178907  4768
KUIPER-00117            
1 65949U 25228C   25309.93308394  .00017694  00000+0  52069-3 0  9991
2 65949  51.8793 197.8636 0005957 212.2219 147.8404 15.35133614  4760
KUIPER-00121            
1 65950U 25228D   25309.94200538  .00018037  00000+0  54048-3 0  9996
2 65950  51.8806 197.9239 0005396 231.4666 128.5836 15.34551248  4764
KUIPER-00122            
1 65951U 25228E   25309.91668981 -.00005711  00000+0 -18600-3 0  9995
2 65951  51.8825 198.2005 0007197 245.3419 264.7629 15.29224563  3383
KUIPER-00123            
1 65952U 25228F   25309.91668981 -.00569360  00000+0 -21599-1 0  9990
2 65952  51.8825 198.1742 0005176 246.7588 257.4238 15.28433253  1681
KUIPER-00124            
1 65953U 25228G   25309.94458795  .00020126  00000+0  60513-3 0  9995
2 65953  51.8803 197.9381 0005341 241.5265 118.5183 15.34367108  4763
